BEIJING 1               
1 28890U 05043A   22263.57181598  .00000294  00000+0  68596-4 0  9990
2 28890  98.1287  24.2837 0014148 233.7324 126.2569 14.61493087901039
HJ-1A                   
1 33320U 08041A   22263.41156969  .00000409  00000+0  63420-4 0  9991
2 33320  97.6718 291.9916 0019657 284.6721  75.2313 14.77915524756415
HJ-1B                   
1 33321U 08041B   22263.43033376  .00000858  00000+0  12514-3 0  9995
2 33321  97.6883 295.7657 0033114 303.0573  56.7459 14.77876660756410
YAOGAN 4                
1 33446U 08061A   22263.26292662  .00000476  00000+0  73688-4 0  9997
2 33446  97.8212 200.5302 0016030 182.1917 177.9226 14.77467074743591
DEIMOS-1                
1 35681U 09041A   22263.55749220  .00000339  00000+0  61190-4 0  9991
2 35681  97.7047 109.7103 0000426 351.7907   8.3304 14.72110480705765
UK-DMC 2                
1 35683U 09041C   22263.48789780  .00000565  00000+0  98390-4 0  9993
2 35683  97.7061  71.4609 0001269  63.7177 296.4167 14.71494590705486
RISAT 1                 
1 38248U 12017A   22263.35413227  .00002840  00000+0  16709-3 0  9997
2 38248  97.5538 273.7090 0002362 309.5905  50.5116 15.12460223573184
DMC3-FM1                
1 40715U 15032A   22263.45376310  .00000447  00000+0  62587-4 0  9998
2 40715  97.8321 148.3430 0005138 197.9016 162.2004 14.82193707387366
DMC3-FM2                
1 40716U 15032B   22263.40924453  .00000445  00000+0  62306-4 0  9998
2 40716  97.8365 148.9901 0007016 204.5297 155.5564 14.82186280387361
DMC3-FM3                
1 40717U 15032C   22263.43055395  .00000448  00000+0  62684-4 0  9994
2 40717  97.8400 149.9635 0008882 204.7950 155.2813 14.82213977387365
